FLOCK 1C-3              
1 40041U 14033AH  17254.07253627  .00000991  00000-0  11186-3 0  9990
2 40041  97.9179 166.5856 0013219  15.9719 344.1907 14.88764760175268
POLYITAN-1              
1 40042U 14033AJ  17253.85202741  .00000916  00000-0  10540-3 0  9997
2 40042  97.9139 164.8009 0015366  17.4184 342.7556 14.88126916175162
TIGRISAT                
1 40043U 14033AK  17253.91327430  .00000385  00000-0  64481-4 0  9992
2 40043  97.8444 135.7884 0060819  19.6871 340.6666 14.74014637173167
LEMUR-1                 
1 40044U 14033AL  17253.63311485  .00000387  00000-0  65147-4 0  9997
2 40044  97.8442 135.2371 0060017  21.7573 338.6164 14.73838729173003
AEROCUBE 6A             
1 40045U 14033AM  17253.89206264  .00000810  00000-0  12494-3 0  9991
2 40045  97.8570 137.1549 0059125  15.0407 345.2543 14.74892814173117
AEROCUBE 6B             
1 40046U 14033AN  17253.89204181  .00000745  00000-0  11567-3 0  9995
2 40046  97.8560 137.0814 0058034  14.5692 345.7173 14.74893592173498
UKUBE-1                 
1 40074U 14037F   17253.81645611  .00001161  00000-0  14808-3 0  9993
2 40074  98.3562  12.6246 0005863 128.8477 231.3249 14.83569000171874
BRITE-PL 2              
1 40119U 14049B   17253.83766662  .00000363  00000-0  49885-4 0  9995
2 40119  97.9337 339.2788 0017931 165.5970 194.5758 14.84173699165866
FIREBIRD 4              
1 40378U 15003C   17253.63431613  .00003933  00000-0  16686-3 0  9994
2 40378  99.1204  94.6991 0136294  79.1616 282.4916 15.15827385143951
GRIFEX                  
1 40379U 15003D   17254.02335544  .00003239  00000-0  14638-3 0  9999
2 40379  99.1235  92.5825 0142384  86.4868 275.2631 15.13285261143869
EXOCUBE                 
1 40380U 15003E   17253.82941314  .00003041  00000-0  14257-3 0  9994
2 40380  99.1279  90.9105 0146124  91.7281 270.0687 15.11731247143723
DEORBITSAIL             
1 40719U 15032E   17253.73716830  .00000901  00000-0  13764-3 0  9999
2 40719  97.9695 146.3818 0015212 225.6237 134.3727 14.76140663116943
TIANWANG 1C (TW-1C)     
1 40926U 15051B   17254.17379443  .00014808  00000-0  32568-3 0  9998
2 40926  97.2219 293.0988 0010254 207.3306 226.4971 15.44028008110189
TIANWANG 1B (TW-1B)     
1 40927U 15051C   17253.79010645  .00020755  00000-0  47295-3 0  9993
2 40927  97.2310 292.6958 0010183 219.7758 229.9998 15.42901264110069
TIANWANG 1A (TW-1A)     
1 40928U 15051D   17253.87146009  .00009513  00000-0  26679-3 0  9999
2 40928  97.2195 288.1435 0010940 243.0985 241.8412 15.36732750109858
LEMUR-2-JOEL            
1 40932U 15052C   17253.07152581  .00001583  00000-0  12805-3 0  9994
2 40932   6.0110 341.7025 0014104  16.7136 343.3511 14.77519478105586
LEMUR-2-CHRIS           
1 40933U 15052D   17253.13316211  .00001758  00000-0  15119-3 0  9999
2 40933   6.0089 340.0552 0014824  21.4173 338.6654 14.77661830105600
LEMUR-2-JEROEN          
1 40934U 15052E   17254.08772837  .00001294  00000-0  90496-4 0  9992
2 40934   6.0194 339.0502 0010550  22.4335 337.6263 14.77015540105655
LEMUR-2-PETER           
1 40935U 15052F   17253.24248141  .00005115  00000-0  62184-3 0  9994
2 40935   6.0090 346.6638 0011759 353.7363   6.2789 14.76795739105531
EXACTVIEW 9             
1 40936U 15052G   17253.67716135  .00000643  00000-0  54738-6 0  9995
2 40936   6.0067 346.5483 0015297   7.7331 352.1329 14.76281974105595
ATHENOXAT 1             
1 41168U 15077C   17254.10559523  .00005543  00000-0  27569-3 0  9998
2 41168  14.9863 261.6476 0012090 126.2760 279.6734 15.11854895 96067
GALASSIA                
1 41170U 15077E   17253.39599775  .00003633  00000-0  16506-3 0  9991
2 41170  14.9886 262.7430 0013588 136.5553 223.5840 15.12317437 95998
VELOX 2                 
1 41171U 15077F   17253.63059716  .00003037  00000-0  14172-3 0  9990
2 41171  14.9912 275.1898 0009185  92.9689 267.1682 15.10043702 95906
AGGIESAT 4              
1 41313U 98067HP  17253.56702993  .00042813  00000-0  24253-3 0  9998
2 41313  51.6385 283.0954 0003678  81.5526 278.5891 15.78615509 92394
HORYU-IV                
1 41340U 16012D   17254.19335159  .00001323  00000-0  95223-4 0  9991
2 41340  31.0051 281.9208 0014192 206.8735 153.1166 15.00686042 85943
OUFTI-1                 
1 41458U 16025C   17254.17484217  .00006335  00000-0  33899-3 0  9991
2 41458  98.1778 296.6661 0171929   3.0051 357.2109 15.03560418 75493
E-ST@R-II               
1 41459U 16025D   17253.93916017  .00005963  00000-0  31903-3 0  9993
2 41459  98.1761 296.3434 0173766   3.8519 356.3996 15.03363868 75459
AAUSAT 4                
1 41460U 16025E   17254.08277491  .00005379  00000-0  28769-3 0  9995
2 41460  98.1691 296.6560 0166155   1.3159 358.8447 15.04383295 75504
DIWATA-1                
1 41463U 98067HT  17254.15634656  .00018610  00000-0  19985-3 0  9994
2 41463  51.6423 311.0811 0001798  90.6527 358.0474 15.63822767 78249
NODES 2                 
1 41477U 98067HX  17254.23310368  .00724827  28804-3  80998-3 0  9990
2 41477  51.6171 270.5649 0005459  39.4723 320.6687 16.08803813 75765
NODES 1                 
1 41478U 98067HY  17254.21042442  .00535931  14667-3  76058-3 0  9994
2 41478  51.6218 272.0017 0005931  39.3720 320.7722 16.04993927 75746
FLOCK 2E'-1             
1 41479U 98067HZ  17254.17091214  .00039567  00000-0  28674-3 0  9999
2 41479  51.6334 296.9220 0000899   7.6953 352.4059 15.73018333 75379
FLOCK 2E'-3             
1 41480U 98067JA  17254.14329913  .00031382  00000-0  23259-3 0  9999
2 41480  51.6329 296.7591 0001809   3.8096 356.2915 15.72605476 75363
FLOCK 2E'-2             
1 41481U 98067JB  17254.17305463  .00039958  00000-0  28042-3 0  9999
2 41481  51.6301 294.6410 0001058  41.6277 318.4802 15.73765897 75380
FLOCK 2E'-4             
1 41482U 98067JC  17254.13139470  .00062711  00000-0  37609-3 0  9991
2 41482  51.6297 292.0744 0002879  36.5281 323.5915 15.77177214 75417
FLOCK 2E-1              
1 41483U 98067JD  17254.10237806  .00026046  00000-0  20735-3 0  9994
2 41483  51.6352 298.7980 0002955  17.4316 342.6783 15.71009106 75195
FLOCK 2E-2              
1 41484U 98067JE  17254.12445611  .00037844  00000-0  27246-3 0  9994
2 41484  51.6361 295.9608 0003211  25.8098 334.3060 15.73190209 75236
FLOCK 2E-3              
1 41486U 98067JG  17254.17774793  .00055294  00000-0  41693-3 0  9998
2 41486  51.6347 300.0381 0003379  33.7707 326.3505 15.71929404 75205
FLOCK 2E-4              
1 41487U 98067JH  17254.15402871  .00031369  00000-0  24744-3 0  9997
2 41487  51.6349 298.3557 0003723  51.1757 308.9573 15.71119413 75228
FLOCK 2E-6              
1 41563U 98067JM  17253.53631583  .00018106  00000-0  15745-3 0  9992
2 41563  51.6345 304.7335 0000334 110.6143 249.4889 15.69128007 73155
FLOCK 2E-5              
1 41564U 98067JN  17253.99759454  .00020760  00000-0  17982-3 0  9995
2 41564  51.6346 302.5735 0000373  45.3472 314.7556 15.69117819 73212
FLOCK 2E-7              
1 41565U 98067JP  17253.55271964  .00031608  00000-0  22686-3 0  9993
2 41565  51.6331 298.7907 0004053  64.1002 296.0414 15.73352108 73123
FLOCK 2E'-5             
1 41567U 98067JR  17254.16777614  .00020841  00000-0  18760-3 0  9991
2 41567  51.6357 303.7373 0004011  84.9920 275.1534 15.68166924 73089
FLOCK 2E'-6             
1 41568U 98067JS  17254.16434434  .00023675  00000-0  19335-3 0  9999
2 41568  51.6339 299.9003 0003672  76.1154 284.0252 15.70453314 73160
FLOCK 2E'-8             
1 41569U 98067JT  17254.14135427  .00031875  00000-0  22542-3 0  9993
2 41569  51.6326 295.2193 0002828  33.0736 327.0439 15.73698190 73101
FLOCK 2E'-7             
1 41570U 98067JU  17254.11372736  .00286622  00000-0  11333-2 0  9995
2 41570  51.6338 289.7611 0007086  37.1540 322.9953 15.85419561 73198
FLOCK 2E-9              
1 41571U 98067JV  17254.15583870  .00037266  00000-0  25034-3 0  9995
2 41571  51.6343 293.8295 0003500  60.1340 300.0007 15.74811367 73106
FLOCK 2E-10             
1 41572U 98067JW  17254.16409767  .00033643  00000-0  24888-3 0  9990
2 41572  51.6342 296.9067 0004194  69.4196 290.7252 15.72605954 73061
FLOCK 2E-12             
1 41573U 98067JX  17253.60564383  .00034365  00000-0  24055-3 0  9993
2 41573  51.6324 298.4004 0003482  69.0759 291.0613 15.73895889 72995
FLOCK 2E-11             
1 41574U 98067JY  17253.59242161  .00037026  00000-0  25836-3 0  9994
2 41574  51.6322 297.5063 0004054  78.0999 282.0454 15.73929698 73003
FLOCK 2E'-9             
1 41575U 98067JZ  17254.09355788  .00042814  00000-0  27898-3 0  9992
2 41575  51.6318 293.3182 0003318  84.7092 275.4286 15.75448490 73091
FLOCK 2E'-10            
1 41576U 98067KA  17253.39801567  .00050406  00000-0  34481-3 0  9998
2 41576  51.6345 299.2995 0003640  85.0710 275.0704 15.74252272 72852
FLOCK 2E'-11            
1 41577U 98067KB  17253.59535035  .00029763  00000-0  21625-3 0  9993
2 41577  51.6349 299.1320 0004037  73.0219 287.1222 15.73098002 72699
FLOCK 2E'-12            
1 41578U 98067KC  17253.38320781  .00046293  00000-0  30346-3 0  9998
2 41578  51.6313 298.3596 0004741  58.2443 301.9018 15.75268663 72684
FLOCK 2P-6              
1 41606U 16040H   17254.20389646  .00002973  00000-0  13066-3 0  9995
2 41606  97.4512 316.2209 0012361 128.4948 231.7399 15.22622477 67790
FLOCK 2P-11             
1 41608U 16040K   17253.94605180  .00004831  00000-0  21000-3 0  9993
2 41608  97.4506 315.9320 0012254 129.8483 230.3833 15.22687867 67696
FLOCK 2P-2              
1 41609U 16040L   17254.16018815  .00003711  00000-0  16230-3 0  9997
2 41609  97.4511 316.1347 0012258 128.6192 231.6144 15.22632513 67702
FLOCK 2P-9              
1 41610U 16040M   17254.10532056  .00005833  00000-0  25319-3 0  9996
2 41610  97.4507 316.0386 0012556 128.9712 231.2645 15.22645333 67574
FLOCK 2P-4              
1 41611U 16040N   17254.13281720  .00004746  00000-0  20682-3 0  9999
2 41611  97.4535 316.2968 0012511 137.0073 223.2144 15.22613213 67742
